{"type": "FeatureCollection", "features": [ {"type": "Feature", "properties": {"norad_id": 66474, "name": "STARLINK-35620", "group": "last-30-days", "lat": 26.930829130075583, "lon": 105.55878439298992, "alt_km": 409.4867393189779, "timestamp": "2025-12-12T11:38:30.168764+00:00", "meta": {"OBJECT_NAME": "STARLINK-35620", "OBJECT_ID": "2025-262U", "EPOCH": "2025-12-11T07:38:34.341792", "MEAN_MOTION": 15.50718811, "ECCENTRICITY": 0.00019374, "INCLINATION": 43.0007, "RA_OF_ASC_NODE": 79.3535, "ARG_OF_PERICENTER": 275.2448, "MEAN_ANOMALY": 84.8191, "EPHEMERIS_TYPE": 0, "CLASSIFICATION_TYPE": "U", "NORAD_CAT_ID": 66474, "ELEMENT_SET_NO": 999, "REV_AT_EPOCH": 534, "BSTAR": 0.0036220445, "MEAN_MOTION_DOT": 0.00219297, "MEAN_MOTION_DDOT": 0}, "tle": {"line1": "1 66474U 25262U   25345.31845303  .00219297  00000+0  36220-2 0  9994", "line2": "2 66474  43.0007  79.3535 0001937 275.2448  84.8191 15.50718811  5347"}}, "geometry": {"type": "Point", "coordinates": [105.55878439298992, 26.930829130075583]}}, {"type": "Feature", "properties": {"norad_id": 66475, "name": "STARLINK-35538", "group": "last-30-days", "lat": 27.36842499062785, "lon": 106.27049022833229, "alt_km": 410.7876741631744, "timestamp": "2025-12-12T11:38:30.168775+00:00", "meta": {"OBJECT_NAME": "STARLINK-35538", "OBJECT_ID": "2025-262V", "EPOCH": "2025-12-11T15:21:50.485824", "MEAN_MOTION": 15.50624349, "ECCENTRICITY": 0.00019147, "INCLINATION": 43.0001, "RA_OF_ASC_NODE": 77.4689, "ARG_OF_PERICENTER": 271.4275, "MEAN_ANOMALY": 88.6366, "EPHEMERIS_TYPE": 0, "CLASSIFICATION_TYPE": "U", "NORAD_CAT_ID": 66475, "ELEMENT_SET_NO": 999, "REV_AT_EPOCH": 539, "BSTAR": 0.0017483441, "MEAN_MOTION_DOT": 0.00103764, "MEAN_MOTION_DDOT": 0}, "tle": {"line1": "1 66475U 25262V   25345.64016766  .00103764  00000+0  17483-2 0  9995", "line2": "2 66475  43.0001  77.4689 0001914 271.4275  88.6366 15.50624349  5395"}}, "geometry": {"type": "Point", "coordinates": [106.27049022833229, 27.36842499062785]}}, {"type": "Feature", "properties": {"norad_id": 66476, "name": "STARLINK-35372", "group": "last-30-days", "lat": 28.560867786332466, "lon": 108.26082688600795, "alt_km": 409.86589091527367, "timestamp": "2025-12-12T11:38:30.168786+00:00", "meta": {"OBJECT_NAME": "STARLINK-35372", "OBJECT_ID": "2025-262W", "EPOCH": "2025-12-11T15:21:21.149568", "MEAN_MOTION": 15.50643698, "ECCENTRICITY": 0.00013866, "INCLINATION": 43.0002, "RA_OF_ASC_NODE": 77.4654, "ARG_OF_PERICENTER": 284.004, "MEAN_ANOMALY": 76.0666, "EPHEMERIS_TYPE": 0, "CLASSIFICATION_TYPE": "U", "NORAD_CAT_ID": 66476, "ELEMENT_SET_NO": 999, "REV_AT_EPOCH": 528, "BSTAR": 0.0028408412, "MEAN_MOTION_DOT": 0.00170386, "MEAN_MOTION_DDOT": 0}, "tle": {"line1": "1 66476U 25262W   25345.63982812  .00170386  00000+0  28408-2 0  9992", "line2": "2 66476  43.0002  77.4654 0001386 284.0040  76.0666 15.50643698  5282"}}, "geometry": {"type": "Point", "coordinates": [108.26082688600795, 28.560867786332466]}}, {"type": "Feature", "properties": {"norad_id": 66477, "name": "STARLINK-35354", "group": "last-30-days", "lat": 30.91058562399202, "lon": 112.48716653080236, "alt_km": 409.49057429519416, "timestamp": "2025-12-12T11:38:30.168796+00:00", "meta": {"OBJECT_NAME": "STARLINK-35354", "OBJECT_ID": "2025-262X", "EPOCH": "2025-12-11T07:36:34.693344", "MEAN_MOTION": 15.50668561, "ECCENTRICITY": 0.00016097, "INCLINATION": 43.0001, "RA_OF_ASC_NODE": 79.3431, "ARG_OF_PERICENTER": 267.1783, "MEAN_ANOMALY": 92.8893, "EPHEMERIS_TYPE": 0, "CLASSIFICATION_TYPE": "U", "NORAD_CAT_ID": 66477, "ELEMENT_SET_NO": 999, "REV_AT_EPOCH": 534, "BSTAR": 0.0026959533, "MEAN_MOTION_DOT": 0.0016164, "MEAN_MOTION_DDOT": 0}, "tle": {"line1": "1 66477U 25262X   25345.31706821  .00161640  00000+0  26960-2 0  9996", "line2": "2 66477  43.0001  79.3431 0001609 267.1783  92.8893 15.50668561  5341"}}, "geometry": {"type": "Point", "coordinates": [112.48716653080236, 30.91058562399202]}}, {"type": "Feature", "properties": {"norad_id": 66478, "name": "STARLINK-35283", "group": "last-30-days", "lat": 32.037815672037674, "lon": 114.68798623587833, "alt_km": 409.1915404555857, "timestamp": "2025-12-12T11:38:30.168806+00:00", "meta": {"OBJECT_NAME": "STARLINK-35283", "OBJECT_ID": "2025-262Y", "EPOCH": "2025-12-11T07:36:04.808448", "MEAN_MOTION": 15.50692325, "ECCENTRICITY": 0.00017473, "INCLINATION": 43, "RA_OF_ASC_NODE": 79.3398, "ARG_OF_PERICENTER": 260.3131, "MEAN_ANOMALY": 99.7532, "EPHEMERIS_TYPE": 0, "CLASSIFICATION_TYPE": "U", "NORAD_CAT_ID": 66478, "ELEMENT_SET_NO": 999, "REV_AT_EPOCH": 534, "BSTAR": 0.0032392192, "MEAN_MOTION_DOT": 0.00195292, "MEAN_MOTION_DDOT": 0}, "tle": {"line1": "1 66478U 25262Y   25345.31672232  .00195292  00000+0  32392-2 0  9991", "line2": "2 66478  43.0000  79.3398 0001747 260.3131  99.7532 15.50692325  5349"}}, "geometry": {"type": "Point", "coordinates": [114.68798623587833, 32.037815672037674]}}, {"type": "Feature", "properties": {"norad_id": 66479, "name": "STARLINK-35581", "group": "last-30-days", "lat": 29.491512309827502, "lon": 109.88089665387723, "alt_km": 410.3547707055177, "timestamp": "2025-12-12T11:38:30.168818+00:00", "meta": {"OBJECT_NAME": "STARLINK-35581", "OBJECT_ID": "2025-262Z", "EPOCH": "2025-12-11T15:20:51.362304", "MEAN_MOTION": 15.506173, "ECCENTRICITY": 0.00015898, "INCLINATION": 43.0004, "RA_OF_ASC_NODE": 77.461, "ARG_OF_PERICENTER": 271.2867, "MEAN_ANOMALY": 88.7811, "EPHEMERIS_TYPE": 0, "CLASSIFICATION_TYPE": "U", "NORAD_CAT_ID": 66479, "ELEMENT_SET_NO": 999, "REV_AT_EPOCH": 539, "BSTAR": 0.0018832674, "MEAN_MOTION_DOT": 0.00111886, "MEAN_MOTION_DDOT": 0}, "tle": {"line1": "1 66479U 25262Z   25345.63948336  .00111886  00000+0  18833-2 0  9999", "line2": "2 66479  43.0004  77.4610 0001589 271.2867  88.7811 15.50617300  5394"}}, "geometry": {"type": "Point", "coordinates": [109.88089665387723, 29.491512309827502]}}, {"type": "Feature", "properties": {"norad_id": 66480, "name": "STARLINK-35670", "group": "last-30-days", "lat": 32.54073401793303, "lon": 115.71285940546605, "alt_km": 409.49627519237765, "timestamp": "2025-12-12T11:38:30.168828+00:00", "meta": {"OBJECT_NAME": "STARLINK-35670", "OBJECT_ID": "2025-262AA", "EPOCH": "2025-12-11T15:19:22.464480", "MEAN_MOTION": 15.50632185, "ECCENTRICITY": 0.00016686, "INCLINATION": 43.0003, "RA_OF_ASC_NODE": 77.453, "ARG_OF_PERICENTER": 292.4213, "MEAN_ANOMALY": 67.6471, "EPHEMERIS_TYPE": 0, "CLASSIFICATION_TYPE": "U", "NORAD_CAT_ID": 66480, "ELEMENT_SET_NO": 999, "REV_AT_EPOCH": 539, "BSTAR": 0.0022531818, "MEAN_MOTION_DOT": 0.0013439, "MEAN_MOTION_DDOT": 0}, "tle": {"line1": "1 66480U 25262AA  25345.63845445  .00134390  00000+0  22532-2 0  9994", "line2": "2 66480  43.0003  77.4530 0001668 292.4213  67.6471 15.50632185  5390"}}, "geometry": {"type": "Point", "coordinates": [115.71285940546605, 32.54073401793303]}}, {"type": "Feature", "properties": {"norad_id": 66481, "name": "STARLINK-35698", "group": "last-30-days", "lat": 33.44034505688374, "lon": 117.6209734490495, "alt_km": 409.54174668479664, "timestamp": "2025-12-12T11:38:30.168841+00:00", "meta": {"OBJECT_NAME": "STARLINK-35698", "OBJECT_ID": "2025-262AB", "EPOCH": "2025-12-11T15:18:52.907040", "MEAN_MOTION": 15.50619658, "ECCENTRICITY": 0.00014945, "INCLINATION": 43.0004, "RA_OF_ASC_NODE": 77.4498, "ARG_OF_PERICENTER": 285.2045, "MEAN_ANOMALY": 74.865, "EPHEMERIS_TYPE": 0, "CLASSIFICATION_TYPE": "U", "NORAD_CAT_ID": 66481, "ELEMENT_SET_NO": 999, "REV_AT_EPOCH": 539, "BSTAR": 0.0020280216, "MEAN_MOTION_DOT": 0.00120658, "MEAN_MOTION_DDOT": 0}, "tle": {"line1": "1 66481U 25262AB  25345.63811235  .00120658  00000+0  20280-2 0  9995", "line2": "2 66481  43.0004  77.4498 0001494 285.2045  74.8650 15.50619658  5394"}}, "geometry": {"type": "Point", "coordinates": [117.6209734490495, 33.44034505688374]}}, {"type": "Feature", "properties": {"norad_id": 66482, "name": "STARLINK-35648", "group": "last-30-days", "lat": 34.25505148443112, "lon": 119.44318601337866, "alt_km": 410.0655072156005, "timestamp": "2025-12-12T11:38:30.168852+00:00", "meta": {"OBJECT_NAME": "STARLINK-35648", "OBJECT_ID": "2025-262AC", "EPOCH": "2025-12-11T15:18:23.183712", "MEAN_MOTION": 15.50608502, "ECCENTRICITY": 0.00016735, "INCLINATION": 43.0001, "RA_OF_ASC_NODE": 77.4468, "ARG_OF_PERICENTER": 270.6994, "MEAN_ANOMALY": 89.3674, "EPHEMERIS_TYPE": 0, "CLASSIFICATION_TYPE": "U", "NORAD_CAT_ID": 66482, "ELEMENT_SET_NO": 999, "REV_AT_EPOCH": 523, "BSTAR": 0.00095038499, "MEAN_MOTION_DOT": 0.00055871, "MEAN_MOTION_DDOT": 0}, "tle": {"line1": "1 66482U 25262AC  25345.63776833  .00055871  00000+0  95038-3 0  9998", "line2": "2 66482  43.0001  77.4468 0001673 270.6994  89.3674 15.50608502  5235"}}, "geometry": {"type": "Point", "coordinates": [119.44318601337866, 34.25505148443112]}}, {"type": "Feature", "properties": {"norad_id": 66483, "name": "STARLINK-35654", "group": "last-30-days", "lat": 35.28369098597703, "lon": 121.89040068134626, "alt_km": 409.8004863583974, "timestamp": "2025-12-12T11:38:30.168862+00:00", "meta": {"OBJECT_NAME": "STARLINK-35654", "OBJECT_ID": "2025-262AD", "EPOCH": "2025-12-11T15:17:53.336832", "MEAN_MOTION": 15.50642502, "ECCENTRICITY": 0.00021538, "INCLINATION": 43.0001, "RA_OF_ASC_NODE": 77.4431, "ARG_OF_PERICENTER": 257.4372, "MEAN_ANOMALY": 102.6247, "EPHEMERIS_TYPE": 0, "CLASSIFICATION_TYPE": "U", "NORAD_CAT_ID": 66483, "ELEMENT_SET_NO": 999, "REV_AT_EPOCH": 539, "BSTAR": 0.002466252, "MEAN_MOTION_DOT": 0.00147434, "MEAN_MOTION_DDOT": 0}, "tle": {"line1": "1 66483U 25262AD  25345.63742288  .00147434  00000+0  24663-2 0  9998", "line2": "2 66483  43.0001  77.4431 0002153 257.4372 102.6247 15.50642502  5393"}}, "geometry": {"type": "Point", "coordinates": [121.89040068134626, 35.28369098597703]}}]}